{
  "norad_id": 42841,
  "name": "LEMUR-2-PETERG",
  "history": [
    {
      "epoch": "2026-03-28T18:35:21.793056Z",
      "apogee_km": 476.376391325005,
      "perigee_km": 471.93596829862327,
      "latitude_deg": -2.4340545214145743e-05,
      "longitude_deg": 167.84272387119174,
      "height_km": 477.74124585365036,
      "semi_major_axis_km": 6852.293179811814,
      "eccentricity": 0.00032401,
      "inclination_deg": 97.3989,
      "raan_deg": 272.8737,
      "arg_perigee_deg": 257.6169,
      "mean_anomaly_deg": 102.4709,
      "mean_motion_rev_day": 15.30554708
    }
  ]
}